{
  "type": "FeatureCollection",
  "features": [
    {
      "type": "Feature",
      "properties": {
        "norad_id": 34492,
        "name": "IRIDIUM 33 DEB",
        "group": "iridium-33-debris",
        "lat": 39.175696254705535,
        "lon": 155.4182400917102,
        "alt_km": 885.3322410816581,
        "timestamp": "2025-12-03T15:48:03.451749+00:00",
        "meta_object_name": "IRIDIUM 33 DEB",
        "meta_object_id": "1997-051GH",
        "meta_epoch": "2025-12-02T11:12:49.891104",
        "meta_mean_motion": 14.2523388,
        "meta_eccentricity": 0.01904279,
        "meta_inclination": 86.4708,
        "meta_ra_of_asc_node": 338.7817,
        "meta_arg_of_pericenter": 271.515,
        "meta_mean_anomaly": 243.1192,
        "meta_ephemeris_type": 0,
        "meta_classification_type": "U",
        "meta_norad_cat_id": 34492,
        "meta_element_set_no": 999,
        "meta_rev_at_epoch": 84912,
        "meta_bstar": 0.0077482505,
        "meta_mean_motion_dot": 0.00022079,
        "meta_mean_motion_ddot": 0,
        "tle_line1": "1 34492U 97051GH  25336.46724411  .00022079  00000+0  77483-2 0  9992",
        "tle_line2": "2 34492  86.4708 338.7817 0190427 271.5150 243.1192 14.25233880849120"
      },
      "geometry": {
        "type": "Point",
        "coordinates": [
          155.4182400917102,
          39.175696254705535
        ]
      }
    },
    {
      "type": "Feature",
      "properties": {
        "norad_id": 34497,
        "name": "IRIDIUM 33 DEB",
        "group": "iridium-33-debris",
        "lat": -41.96792138442165,
        "lon": 52.92450160746431,
        "alt_km": 770.7705452975288,
        "timestamp": "2025-12-03T15:48:03.451758+00:00",
        "meta_object_name": "IRIDIUM 33 DEB",
        "meta_object_id": "1997-051GN",
        "meta_epoch": "2025-12-03T06:10:51.202848",
        "meta_mean_motion": 14.27408211,
        "meta_eccentricity": 0.00798564,
        "meta_inclination": 86.2784,
        "meta_ra_of_asc_node": 56.4516,
        "meta_arg_of_pericenter": 10.3771,
        "meta_mean_anomaly": 49.8757,
        "meta_ephemeris_type": 0,
        "meta_classification_type": "U",
        "meta_norad_cat_id": 34497,
        "meta_element_set_no": 999,
        "meta_rev_at_epoch": 86748,
        "meta_bstar": 0.00083815475,
        "meta_mean_motion_dot": 2.144e-05,
        "meta_mean_motion_ddot": 0,
        "tle_line1": "1 34497U 97051GN  25337.25753707  .00002144  00000+0  83815-3 0  9993",
        "tle_line2": "2 34497  86.2784  56.4516 0079856  10.3771  49.8757 14.27408211867488"
      },
      "geometry": {
        "type": "Point",
        "coordinates": [
          52.92450160746431,
          -41.96792138442165
        ]
      }
    },
    {
      "type": "Feature",
      "properties": {
        "norad_id": 34508,
        "name": "IRIDIUM 33 DEB",
        "group": "iridium-33-debris",
        "lat": 60.461039958372986,
        "lon": -79.94091340057753,
        "alt_km": 752.5424367568876,
        "timestamp": "2025-12-03T15:48:03.451767+00:00",
        "meta_object_name": "IRIDIUM 33 DEB",
        "meta_object_id": "1997-051GZ",
        "meta_epoch": "2025-12-03T08:33:52.369632",
        "meta_mean_motion": 14.38274936,
        "meta_eccentricity": 0.00654731,
        "meta_inclination": 86.3696,
        "meta_ra_of_asc_node": 106.6197,
        "meta_arg_of_pericenter": 203.4405,
        "meta_mean_anomaly": 156.3806,
        "meta_ephemeris_type": 0,
        "meta_classification_type": "U",
        "meta_norad_cat_id": 34508,
        "meta_element_set_no": 999,
        "meta_rev_at_epoch": 87174,
        "meta_bstar": 0.0024457268,
        "meta_mean_motion_dot": 7.645e-05,
        "meta_mean_motion_ddot": 0,
        "tle_line1": "1 34508U 97051GZ  25337.35685613  .00007645  00000+0  24457-2 0  9994",
        "tle_line2": "2 34508  86.3696 106.6197 0065473 203.4405 156.3806 14.38274936871746"
      },
      "geometry": {
        "type": "Point",
        "coordinates": [
          -79.94091340057753,
          60.461039958372986
        ]
      }
    },
    {
      "type": "Feature",
      "properties": {
        "norad_id": 34521,
        "name": "IRIDIUM 33 DEB",
        "group": "iridium-33-debris",
        "lat": -23.620027620547962,
        "lon": -143.86849869955327,
        "alt_km": 688.3593846746398,
        "timestamp": "2025-12-03T15:48:03.451777+00:00",
        "meta_object_name": "IRIDIUM 33 DEB",
        "meta_object_id": "1997-051HN",
        "meta_epoch": "2025-12-03T05:01:32.531520",
        "meta_mean_motion": 14.63222261,
        "meta_eccentricity": 0.00011839,
        "meta_inclination": 86.3815,
        "meta_ra_of_asc_node": 34.7432,
        "meta_arg_of_pericenter": 295.1302,
        "meta_mean_anomaly": 64.9787,
        "meta_ephemeris_type": 0,
        "meta_classification_type": "U",
        "meta_norad_cat_id": 34521,
        "meta_element_set_no": 999,
        "meta_rev_at_epoch": 88333,
        "meta_bstar": 0.0013233865,
        "meta_mean_motion_dot": 6.837e-05,
        "meta_mean_motion_ddot": 0,
        "tle_line1": "1 34521U 97051HN  25337.20940430  .00006837  00000+0  13234-2 0  9997",
        "tle_line2": "2 34521  86.3815  34.7432 0001183 295.1302  64.9787 14.63222261883331"
      },
      "geometry": {
        "type": "Point",
        "coordinates": [
          -143.86849869955327,
          -23.620027620547962
        ]
      }
    },
    {
      "type": "Feature",
      "properties": {
        "norad_id": 34525,
        "name": "IRIDIUM 33 DEB",
        "group": "iridium-33-debris",
        "lat": -31.031719746972453,
        "lon": 48.53297867982258,
        "alt_km": 758.9604782237429,
        "timestamp": "2025-12-03T15:48:03.451786+00:00",
        "meta_object_name": "IRIDIUM 33 DEB",
        "meta_object_id": "1997-051HS",
        "meta_epoch": "2025-12-03T06:14:27.185568",
        "meta_mean_motion": 14.42866492,
        "meta_eccentricity": 0.00064293,
        "meta_inclination": 86.3737,
        "meta_ra_of_asc_node": 50.8894,
        "meta_arg_of_pericenter": 116.834,
        "meta_mean_anomaly": 304.4442,
        "meta_ephemeris_type": 0,
        "meta_classification_type": "U",
        "meta_norad_cat_id": 34525,
        "meta_element_set_no": 999,
        "meta_rev_at_epoch": 87951,
        "meta_bstar": 0.00056850391,
        "meta_mean_motion_dot": 1.917e-05,
        "meta_mean_motion_ddot": 0,
        "tle_line1": "1 34525U 97051HS  25337.26003687  .00001917  00000+0  56850-3 0  9997",
        "tle_line2": "2 34525  86.3737  50.8894 0006429 116.8340 304.4442 14.42866492879510"
      },
      "geometry": {
        "type": "Point",
        "coordinates": [
          48.53297867982258,
          -31.031719746972453
        ]
      }
    },
    {
      "type": "Feature",
      "properties": {
        "norad_id": 34529,
        "name": "IRIDIUM 33 DEB",
        "group": "iridium-33-debris",
        "lat": -61.6000571031127,
        "lon": 32.530623673675656,
        "alt_km": 763.6793852020701,
        "timestamp": "2025-12-03T15:48:03.451795+00:00",
        "meta_object_name": "IRIDIUM 33 DEB",
        "meta_object_id": "1997-051HW",
        "meta_epoch": "2025-12-03T04:25:06.115584",
        "meta_mean_motion": 14.40603135,
        "meta_eccentricity": 0.00036637,
        "meta_inclination": 86.3649,
        "meta_ra_of_asc_node": 39.4847,
        "meta_arg_of_pericenter": 211.6368,
        "meta_mean_anomaly": 148.4612,
        "meta_ephemeris_type": 0,
        "meta_classification_type": "U",
        "meta_norad_cat_id": 34529,
        "meta_element_set_no": 999,
        "meta_rev_at_epoch": 88004,
        "meta_bstar": 0.00016704296,
        "meta_mean_motion_dot": 5.52e-06,
        "meta_mean_motion_ddot": 0,
        "tle_line1": "1 34529U 97051HW  25337.18409856  .00000552  00000+0  16704-3 0  9998",
        "tle_line2": "2 34529  86.3649  39.4847 0003663 211.6368 148.4612 14.40603135880044"
      },
      "geometry": {
        "type": "Point",
        "coordinates": [
          32.530623673675656,
          -61.6000571031127
        ]
      }
    },
    {
      "type": "Feature",
      "properties": {
        "norad_id": 34538,
        "name": "IRIDIUM 33 DEB",
        "group": "iridium-33-debris",
        "lat": 70.09214215937988,
        "lon": 19.88748900197879,
        "alt_km": 735.7614536950496,
        "timestamp": "2025-12-03T15:48:03.451804+00:00",
        "meta_object_name": "IRIDIUM 33 DEB",
        "meta_object_id": "1997-051JF",
        "meta_epoch": "2025-12-03T09:06:24.180192",
        "meta_mean_motion": 14.42557361,
        "meta_eccentricity": 0.00339742,
        "meta_inclination": 86.2784,
        "meta_ra_of_asc_node": 9.6557,
        "meta_arg_of_pericenter": 359.4688,
        "meta_mean_anomaly": 63.0233,
        "meta_ephemeris_type": 0,
        "meta_classification_type": "U",
        "meta_norad_cat_id": 34538,
        "meta_element_set_no": 999,
        "meta_rev_at_epoch": 87621,
        "meta_bstar": 0.0012709165,
        "meta_mean_motion_dot": 4.264e-05,
        "meta_mean_motion_ddot": 0,
        "tle_line1": "1 34538U 97051JF  25337.37944653  .00004264  00000+0  12709-2 0  9992",
        "tle_line2": "2 34538  86.2784   9.6557 0033974 359.4688  63.0233 14.42557361876210"
      },
      "geometry": {
        "type": "Point",
        "coordinates": [
          19.88748900197879,
          70.09214215937988
        ]
      }
    }
  ]
}